NOAA 2 (ITOS-D)
1 06235U 72082A   26193.59917986 -.00000030  00000-0  10427-3 0  9991
2 06235 102.0075 212.4488 0004551 119.8614 351.0869 12.53215798458133
SOLRAD-7B
1 01291U 65016D   26193.35141837 -.00000014  00000-0  28215-4 0  9992
2 01291  70.0774 182.7639 0018378  87.7167 272.6043 13.94978420120216
OSCAR-7 (AO-7)
1 07530U 74089B   26193.61067219 -.00000028  00000-0  11694-3 0  9991
2 07530 101.9904 207.1222 0012658  83.1626  33.3644 12.53698515363702
UOSAT-2 (UO-11)
1 14781U 84021B   26193.45805654  .00000812  00000-0  88055-4 0  9995
2 14781  97.8074 158.7535 0009191  99.0436 261.1822 14.90844987260894
FLTSATCOM-7 (USA-20)
1 17181U 86096A   26192.61058095 -.00000287  00000-0  00000-0 0  9999
2 17181  12.6813 339.9336 0040373 331.1589 350.1905  0.98931254152208
FLTSATCOM-8 (USA-46)
1 20253U 89077A   26193.45710745 -.00000371  00000-0  00000-0 0  9999
2 20253  12.4143 351.0089 0003496  69.4376 160.0118  1.00264418260812
OSCAR 16 (PACSAT)
1 20439U 90005D   26193.36482823  .00000058  00000-0  37459-4 0  9994
2 20439  98.8513 229.6336 0011117 152.6295 276.4348 14.33944198905549
LUSAT (LO-19)
1 20442U 90005G   26193.29864192  .00000048  00000-0  33720-4 0  9999
2 20442  98.8847 215.7954 0012440 129.3206 230.9083 14.34130209905999
UFO 2 (USA 95)
1 22787U 93056A   26193.14092454  .00000121  00000-0  00000-0 0  9993
2 22787  11.9058   3.4153 0002696   8.6299 357.3694  1.00268970118803
EYESAT-1 (AO-27)
1 22825U 93061C   26193.17239583  .00000034  00000-0  29730-4 0  9999
2 22825  98.6869 260.5755 0008924  34.2140 325.9616 14.30948567710573
ITAMSAT (IO-26)
1 22826U 93061D   26193.14435021  .00000030  00000-0  28178-4 0  9993
2 22826  98.6817 260.4674 0009149  18.0358 342.1148 14.31376147710882
UFO 3 (USA 104)
1 23132U 94035A   26193.27573220 -.00000108  00000-0  00000-0 0  9991
2 23132  12.3784   5.5543 0001396 252.5799 121.2755  1.00270212131955
RADIO ROSTO (RS-15)
1 23439U 94085A   26193.56974958 -.00000018  00000-0  69602-3 0  9997
2 23439  64.8160 262.1670 0156811 359.1907   0.8742 11.27583544298761
UFO 4 (USA 108)
1 23467U 95003A   26193.52055854 -.00000026  00000-0  00000-0 0  9993
2 23467   9.6741  13.0206 0003146  96.4803 180.6457  1.00275863115209
UFO 7 (USA 127)
1 23967U 96042A   26193.41033743 -.00000305  00000-0  00000-0 0  9993
2 23967  11.1404  16.9408 0006461 114.5300 256.1122  1.00204495109744
JAS-2 (FO-29)
1 24278U 96046B   26193.52226945  .00000020  00000-0  54923-4 0  9993
2 24278  98.5221  38.9215 0350477  30.8650 331.2590 13.53275422476596
UFO 8 (USA 138)
1 25258U 98016A   26193.47436478 -.00000197  00000-0  00000-0 0  9998
2 25258  11.1612  22.5994 0004100 239.9466 351.5724  1.00265513104118
TECHSAT-1B (GO-32)
1 25397U 98043D   26193.56255600  .00000019  00000-0  28421-4 0  9991
2 25397  99.0083 186.9628 0002120 118.5783 241.5609 14.24433030454942
ISS (ZARYA)
1 25544U 98067A   26193.41162669  .00004782  00000-0  94926-4 0  9991
2 25544  51.6301 175.2558 0006698 286.7033  73.3220 15.48989885575660
UFO 10 (USA 146)
1 25967U 99063A   26193.32544795 -.00000193  00000-0  00000-0 0  9990
2 25967   9.8585  27.0756 0001479 110.2518 247.0991  1.00273081 97596
PCSAT (NO-44)
1 26931U 01043C   26193.44327055  .00000039  00000-0  45472-4 0  9998
2 26931  67.0492 178.9472 0005950 266.3908  93.6514 14.31964345294061
PROBA-1
1 26958U 01049B   26193.62430816  .00001696  00000-0  11210-3 0  9995
2 26958  97.9607 203.0457 0055932  38.1735 322.3432 15.07609618347457
SAUDISAT-1C (SO-50)
1 27607U 02058C   26192.83511488  .00000404  00000-0  65677-4 0  9998
2 27607  64.5517  52.7226 0074623 257.8961 101.3778 14.83094671268114
CUTE-1 (CO-55)
1 27844U 03031E   26193.53707035  .00000153  00000-0  85274-4 0  9992
2 27844  98.6742 201.7775 0010779 109.4665 250.7680 14.24350488195289
CUBESAT XI-IV (CO-57)
1 27848U 03031J   26193.53826736  .00000128  00000-0  75348-4 0  9999
2 27848  98.6772 201.4707 0010448 126.3839 233.8305 14.23633637194983
MOZHAYETS-4 (RS-22)
1 27939U 03042A   26193.61137760  .00000136  00000-0  29282-4 0  9998
2 27939  98.3475  18.6901 0010992 181.4680 251.1164 14.73510128219297
UFO 11 (USA 174)
1 28117U 03057A   26193.52580830 -.00000110  00000-0  00000-0 0  9999
2 28117   8.9545  33.6999 0002648  90.8886  70.7052  1.00270266 82702
CUBESAT XI-V (CO-58)
1 28895U 05043F   26192.38715503  .00000804  00000-0  13420-3 0  9991
2 28895  98.3011 348.5214 0015131 126.3821 233.8784 14.72696464105311
CAPE-1
1 31130U 07012P   26193.37420482  .00000812  00000-0  15429-3 0  9994
2 31130  98.4478 168.5460 0083253 353.6136   6.3997 14.64949183 22049
CUTE-1.7+APD II (CO-65)
1 32785U 08021C   26193.56979783  .00003132  00000-0  19855-3 0  9991
2 32785  97.8286 175.5222 0007259 310.1799  49.8793 15.09684862989021
SEEDS-II (CO-66)
1 32791U 08021J   26193.52388480  .00011335  00000-0  35129-3 0  9998
2 32791  97.7520 192.6480 0002794 162.8059 197.3278 15.33607267991171
YUBILEINY (RS-30)
1 32953U 08025A   26193.61001110  .00000046  00000-0  26003-3 0  9992
2 32953  82.5053 339.6247 0018565 254.9987 104.9038 12.43180808822855
KKS-1 (KISEKI)
1 33499U 09002H   26193.48843013  .00000656  00000-0  87208-4 0  9997
2 33499  98.1177 116.3316 0007195 198.2505 161.8451 14.83185269939943
SWISSCUBE
1 35932U 09051B   26193.20904170  .00000502  00000-0  10865-3 0  9991
2 35932  98.4012 101.5313 0007715 127.0520 233.1388 14.62527427892815
BEESAT
1 35933U 09051C   26192.68394636  .00000417  00000-0  93456-4 0  9996
2 35933  98.3940 100.5811 0005925 139.0777 221.0870 14.61758535892766
ITUPSAT-1
1 35935U 09051E   26192.97035851  .00000388  00000-0  90106-4 0  9997
2 35935  98.4023 100.0372 0007861 152.4089 207.7529 14.60475983892353
PROBA-2
1 36037U 09059B   26193.48103607  .00000089  00000-0  31240-4 0  9993
2 36037  98.2458  16.4841 0012816 197.3060 162.7701 14.54872953885200
XIWANG-1 (HOPE-1)
1 36122U 09072B   26193.55158872 -.00000210  00000-0 -43460-3 0  9999
2 36122 100.4028 146.9796 0007469 170.7708 189.3544 13.16438509796342
EWS-G2 (GOES-15)
1 36411U 10008A   26193.18219507  .00000023  00000-0  00000-0 0  9993
2 36411   1.3436  82.5028 0005204  53.7849 282.7295  1.00268209 59889
TISAT-1
1 36799U 10035E   26193.32586931  .00012411  00000-0  39602-3 0  9993
2 36799  98.0705 142.1248 0004283 125.7412 234.4226 15.32659401871551
HORYU-2
1 38340U 12025D   26193.60438033  .00001638  00000-0  17084-3 0  9997
2 38340  98.2203 327.5865 0009349  99.4094 260.8180 14.91219031752516
AAUSAT-3
1 39087U 13009B   26193.47390660  .00000324  00000-0  11648-3 0  9998
2 39087  98.3707  16.6931 0012358 132.0109 228.2134 14.39969616700816
STRAND-1
1 39090U 13009E   26193.46783720  .00000149  00000-0  64299-4 0  9990
2 39090  98.3932  13.0813 0009262 148.5894 211.5848 14.37177891700690
CUBEBUG-1 (CAPITAN BETO)
1 39153U 13018D   26193.42785110  .00001092  00000-0  99264-4 0  9999
2 39153  98.1685 354.4987 0012393  66.3784 293.8736 14.97449266714846
PROBA-V
1 39159U 13021A   26193.49189182  .00000031  00000-0  31690-4 0  9994
2 39159  98.3603 170.8514 0005331  66.2840 293.8899 14.23603169684711
ZACUBE-1 (TSHEPISOSAT)
1 39417U 13066B   26193.46865734  .00001312  00000-0  10483-3 0  9990
2 39417  97.8011 155.9308 0043870 163.9572 196.3053 15.01321493684529
TRITON-1
1 39427U 13066M   26193.61930221  .00000672  00000-0  86068-4 0  9993
2 39427  97.8229 102.8458 0090388 150.4294 210.2074 14.81788460677851
DELFI-N3XT
1 39428U 13066N   26193.34074359  .00003698  00000-0  32191-3 0  9993
2 39428  97.8333 113.6309 0075841 122.1569 238.7039 14.95339877678385
GOMX-1
1 39430U 13066Q   26193.51576027  .00000868  00000-0  13667-3 0  9997
2 39430  97.6477  32.3804 0128530 356.8321   3.2058 14.69538877673639
VELOX-PII
1 39438U 13066Y   26193.29848963  .00001103  00000-0  10873-3 0  9990
2 39438  97.8754 144.6958 0050903 259.4447 100.1036 14.93248648681586
CUBEBUG-2 (LO-74)
1 39440U 13066AA  26193.31516960  .00001823  00000-0  17183-3 0  9995
2 39440  97.8909 142.4045 0055986 305.1332  54.4648 14.93955186680741
FUNCUBE-1 (AO-73)
1 39444U 13066AE  26192.91261323  .00003917  00000-0  24262-3 0  9996
2 39444  97.8287 164.8814 0037972 118.2418 242.2652 15.09793381683390
UWE-3
1 39446U 13066AG  26193.41298972  .00001756  00000-0  15387-3 0  9991
2 39446  97.8700 149.6617 0047510 234.2156 125.4645 14.97187827681357
UNISAT-6
1 40012U 14033C   26193.41236756  .00001198  00000-0  13315-3 0  9998
2 40012  97.7904 345.6857 0044408 347.0654  12.9420 14.88359612649916
DUCHIFAT-1
1 40021U 14033M   26192.66620544  .00095138  00000-0  77604-3 0  9994
2 40021  98.0458 255.3713 0001920 269.1618  90.9422 15.70315468659583
SMAP
1 40376U 15003A   26193.58408037  .00000204  00000-0  48500-4 0  9992
2 40376  98.1282 200.3194 0001579  95.9531 264.1851 14.63387828611336
LILACSAT-2
1 40908U 15049K   26193.54871554  .00011762  00000-0  19486-3 0  9998
2 40908  97.4630 231.3641 0008248 149.2429 210.9308 15.52293452599683
LAPAN-A2 (IO-86)
1 40931U          25360.30710720  .00000000  00000-0  12800-3 0    00
2 40931   6.0006 332.5373 0012733 338.8432   8.1437 14.79075515    01
LQSAT
1 40958U 15057A   26193.61364800  .00000582  00000-0  89639-4 0  9997
2 40958  97.6690 185.7311 0016596 184.4058 175.7009 14.76812922579066
PRATHAM
1 41783U 16059A   26193.54509772  .00000335  00000-0  67268-4 0  9998
2 41783  97.8335 189.2900 0032258 135.9093 224.4693 14.67224013523234
ALSAT-1N
1 41789U 16059G   26193.58488442  .00000531  00000-0  97218-4 0  9994
2 41789  97.8017 195.8048 0027393 105.3798 255.0438 14.69346912523737
CAS-2T & KS-1Q
1 41847U 16066G   26193.17326633  .00000623  00000-0  95449-4 0  9991
2 41847  98.3814 268.6236 0342398  53.9111 309.3277 14.44766328508404
GOES-16
1 41866U 16071A   26193.50489125 -.00000090  00000-0  00000-0 0  9995
2 41866   0.3968  85.4960 0000523  99.3916 182.5790  1.00270875 35350
FENGYUN-4A
1 41882U 16077A   26193.65876036 -.00000359  00000-0  00000-0 0  9994
2 41882   2.3835  79.9957 0008476 159.3659  52.1102  1.00269540 35180
